NORAD_CAT_ID,OBJECT_NAME,OBJECT_TYPE,EPOCH,MEAN_MOTION,ECCENTRICITY,INCLINATION,RA_OF_ASC_NODE,ARG_OF_PERICENTER,MEAN_ANOMALY,BSTAR,MEAN_MOTION_DOT,MEAN_MOTION_DDOT,TLE_LINE0,TLE_LINE1,TLE_LINE2,SEMIMAJOR_AXIS,PERIOD,APOGEE,PERIGEE,DECAYED
55940.0,STARLINK-5864,PAYLOAD,2023-05-20 18:12:07,15.69911241,0.0002906,70.0017,1.1601,275.8692,84.2173,-2.8599e-05,-3.648e-05,0.0,0 STARLINK-5864,1 55940U 23037AC  23140.75842591 -.00003648  00000-0 -28599-4 0  9999,2 55940  70.0017   1.1601 0002906 275.8692  84.2173 15.69911241 10572,6737.288,91.725,361.111,357.195,0.0
55940.0,STARLINK-5864,PAYLOAD,2023-05-20 21:15:37,15.69921021,0.0003726,70.0008,0.8038,279.5409,80.5365,-9.1506e-06,-1.313e-05,0.0,0 STARLINK-5864,1 55940U 23037AC  23140.88585390 -.00001313  00000-0 -91506-5 0  9990,2 55940  70.0008   0.8038 0003726 279.5409  80.5365 15.69921021 10254,6737.26,91.724,361.635,356.615,0.0
55940.0,STARLINK-5864,PAYLOAD,2023-05-21 00:19:09,15.6988882,0.0002665,70.0024,0.4425,290.9022,69.1888,-6.9236e-05,-8.515e-05,0.0,0 STARLINK-5864,1 55940U 23037AC  23141.01330661 -.00008515  00000-0 -69236-4 0  9990,2 55940  70.0024   0.4425 0002665 290.9022  69.1888 15.69888820 10619,6737.352,91.726,361.013,357.422,0.0
55940.0,STARLINK-5864,PAYLOAD,2023-05-21 15:36:39,15.69921354,0.0003751,69.9998,358.6521,275.8559,84.2209,-4.0875e-06,-7.04e-06,0.0,0 STARLINK-5864,1 55940U 23037AC  23141.65045796 -.00000704  00000-0 -40875-5 0  9993,2 55940  69.9998 358.6521 0003751 275.8559  84.2209 15.69921354 10711,6737.259,91.724,361.651,356.597,0.0
55940.0,STARLINK-5864,PAYLOAD,2023-05-21 18:40:09,15.69936292,0.0003782,69.9996,358.2938,273.7343,86.342,2.7087e-05,3.047e-05,0.0,0 STARLINK-5864,1 55940U 23037AC  23141.77788440  .00003047  00000-0  27087-4 0  9996,2 55940  69.9996 358.2938 0003782 273.7343  86.3420 15.69936292 10398,6737.216,91.723,361.629,356.533,0.0
55940.0,STARLINK-5864,PAYLOAD,2023-05-21 23:15:24,15.69939393,0.0003819,69.9994,357.7564,271.7128,88.363,3.2407e-05,3.688e-05,0.0,0 STARLINK-5864,1 55940U 23037AC  23141.96903188  .00003688  00000-0  32407-4 0  9998,2 55940  69.9994 357.7564 0003819 271.7128  88.3630 15.69939393 10766,6737.207,91.723,361.645,356.499,0.0
55940.0,STARLINK-5864,PAYLOAD,2023-05-22 16:04:41,15.69924972,0.0003775,69.998,355.7821,270.3111,89.7652,2.9565e-05,3.344e-05,0.0,0 STARLINK-5864,1 55940U 23037AC  23142.66992165  .00003344  00000-0  29565-4 0  9999,2 55940  69.9980 355.7821 0003775 270.3111  89.7652 15.69924972 10871,6737.249,91.724,361.657,356.57,0.0
55940.0,STARLINK-5864,PAYLOAD,2023-05-22 20:39:56,15.69926302,0.0003797,69.9993,355.2476,268.5332,91.5429,2.9849e-05,3.378e-05,0.0,0 STARLINK-5864,1 55940U 23037AC  23142.86107115  .00003378  00000-0  29849-4 0  9996,2 55940  69.9993 355.2476 0003797 268.5332  91.5429 15.69926302 10562,6737.245,91.724,361.668,356.552,0.0
55940.0,STARLINK-5864,PAYLOAD,2023-05-23 16:32:43,15.69920804,0.0003736,69.9997,352.9179,268.3048,91.772,-6.3931e-06,-9.82e-06,0.0,0 STARLINK-5864,1 55940U 23037AC  23143.68939309 -.00000982  00000-0 -63931-5 0  9996,2 55940  69.9997 352.9179 0003736 268.3048  91.7720 15.69920804 11035,6737.261,91.724,361.643,356.609,0.0
55940.0,STARLINK-5864,PAYLOAD,2023-05-24 15:29:00,15.6992269,0.0003857,69.9991,350.2314,266.6275,93.4479,3.959e-06,2.63e-06,0.0,0 STARLINK-5864,1 55940U 23037AC  23144.64514066  .00000263  00000-0  39590-5 0  9996,2 55940  69.9991 350.2314 0003857 266.6275  93.4479 15.69922690 10841,6737.255,91.724,361.719,356.522,0.0
55940.0,STARLINK-5864,PAYLOAD,2023-05-25 14:25:17,15.69929001,0.0003662,69.9971,347.5441,263.3398,96.7381,4.6847e-06,3.5e-06,0.0,0 STARLINK-5864,1 55940U 23037AC  23145.60089234  .00000350  00000-0  46847-5 0  9997,2 55940  69.9971 347.5441 0003662 263.3398  96.7381 15.69929001 10990,6737.237,91.724,361.569,356.635,0.0
55940.0,STARLINK-5864,PAYLOAD,2023-05-25 15:57:02,15.69929751,0.0003578,69.9973,347.3644,261.4132,98.6658,4.5774e-06,3.38e-06,0.0,0 STARLINK-5864,1 55940U 23037AC  23145.66460841  .00000338  00000-0  45774-5 0  9994,2 55940  69.9973 347.3644 0003578 261.4132  98.6658 15.69929751 11346,6737.235,91.724,361.511,356.689,0.0
55940.0,STARLINK-5864,PAYLOAD,2023-05-25 22:04:02,15.69936242,0.0003589,69.9971,346.6475,262.7485,97.3303,1.4926e-05,1.583e-05,0.0,0 STARLINK-5864,1 55940U 23037AC  23145.91946827  .00001583  00000-0  14926-4 0  9992,2 55940  69.9971 346.6475 0003589 262.7485  97.3303 15.69936242 11048,6737.216,91.723,361.499,356.663,0.0
55940.0,STARLINK-5864,PAYLOAD,2023-05-26 13:21:34,15.69916557,0.0003782,69.9973,344.8557,267.3666,92.7096,9.335e-06,9.09e-06,0.0,0 STARLINK-5864,1 55940U 23037AC  23146.55664892  .00000909  00000-0  93350-5 0  9992,2 55940  69.9973 344.8557 0003782 267.3666  92.7096 15.69916557 11144,6737.273,91.725,361.686,356.59,0.0
55940.0,STARLINK-5864,PAYLOAD,2023-05-26 16:25:04,15.69920143,0.0003668,69.9974,344.497,267.5649,92.5127,1.3721e-05,1.437e-05,0.0,0 STARLINK-5864,1 55940U 23037AC  23146.68408048  .00001437  00000-0  13721-4 0  9995,2 55940  69.9974 344.4970 0003668 267.5649  92.5127 15.69920143 11505,6737.262,91.724,361.599,356.656,0.0
55940.0,STARLINK-5864,PAYLOAD,2023-05-26 21:00:19,15.69925325,0.0003432,69.9972,343.9597,265.4528,94.6276,1.9305e-05,2.109e-05,0.0,0 STARLINK-5864,1 55940U 23037AC  23146.87522696  .00002109  00000-0  19305-4 0  9993,2 55940  69.9972 343.9597 0003432 265.4528  94.6276 15.69925325 11194,6737.248,91.724,361.425,356.8,0.0
55940.0,STARLINK-5864,PAYLOAD,2023-05-26 22:32:04,15.6992681,0.0003436,69.9992,343.7805,266.5944,93.4859,1.9607e-05,2.146e-05,0.0,0 STARLINK-5864,1 55940U 23037AC  23146.93894296  .00002146  00000-0  19607-4 0  9994,2 55940  69.9992 343.7805 0003436 266.5944  93.4859 15.69926810 11547,6737.243,91.724,361.423,356.793,0.0
55940.0,STARLINK-5864,PAYLOAD,2023-05-27 21:28:21,15.69928439,0.0003199,70.0002,341.095,257.3738,102.71,1.0951e-05,1.104e-05,0.0,0 STARLINK-5864,1 55940U 23037AC  23147.89469237  .00001104  00000-0  10951-4 0  9999,2 55940  70.0002 341.0950 0003199 257.3738 102.7100 15.69928439 11350,6737.239,91.724,361.259,356.948,0.0
55940.0,STARLINK-5864,PAYLOAD,2023-05-27 23:00:06,15.69927319,0.0003253,69.9986,340.9142,271.6272,88.4551,8.4028e-06,7.98e-06,0.0,0 STARLINK-5864,1 55940U 23037AC  23147.95841167  .00000798  00000-0  84028-5 0  9997,2 55940  69.9986 340.9142 0003253 271.6272  88.4551 15.69927319 11707,6737.242,91.724,361.299,356.915,0.0
55940.0,STARLINK-5864,PAYLOAD,2023-05-28 20:24:38,15.69934003,0.0003544,69.999,338.4071,264.1172,95.962,2.0572e-05,2.262e-05,0.0,0 STARLINK-5864,1 55940U 23037AC  23148.85043998  .00002262  00000-0  20572-4 0  9994,2 55940  69.9990 338.4071 0003544 264.1172  95.9620 15.69934003 11500,6737.223,91.724,361.475,356.7,0.0
55940.0,STARLINK-5864,PAYLOAD,2023-05-29 05:35:10,15.6991194,0.0002513,70.001,337.3312,273.3771,86.7137,4.4362e-06,3.21e-06,0.0,0 STARLINK-5864,1 55940U 23037AC  23149.23275620  .00000321  00000-0  44362-5 0  9994,2 55940  70.0010 337.3312 0002513 273.3771  86.7137 15.69911940 11904,6737.286,91.725,360.844,357.458,0.0
55940.0,STARLINK-5864,PAYLOAD,2023-05-29 14:45:40,15.69924442,0.0003393,69.9991,336.2575,265.4895,94.5913,7.8967e-06,7.37e-06,0.0,0 STARLINK-5864,1 55940U 23037AC  23149.61504743  .00000737  00000-0  78967-5 0  9996,2 55940  69.9991 336.2575 0003393 265.4895  94.5913 15.69924442 11623,6737.25,91.724,361.401,356.829,0.0
55940.0,STARLINK-5864,PAYLOAD,2023-05-29 16:17:25,15.69927428,0.0003164,70.0005,336.0794,260.1931,99.8908,1.3584e-05,1.421e-05,0.0,0 STARLINK-5864,1 55940U 23037AC  23149.67876361  .00001421  00000-0  13584-4 0  9994,2 55940  70.0005 336.0794 0003164 260.1931  99.8908 15.69927428 11979,6737.242,91.724,361.238,356.975,0.0
55940.0,STARLINK-5864,PAYLOAD,2023-05-29 20:52:40,15.69929817,0.0003161,70.0007,335.5426,258.7802,101.3039,1.8977e-05,2.07e-05,0.0,0 STARLINK-5864,1 55940U 23037AC  23149.86991260  .00002070  00000-0  18977-4 0  9993,2 55940  70.0007 335.5426 0003161 258.7802 101.3039 15.69929817 11668,6737.235,91.724,361.229,356.97,0.0
55940.0,STARLINK-5864,PAYLOAD,2023-05-30 06:03:11,15.69921373,0.000337,69.9997,334.4659,271.1276,88.9534,1.7944e-05,1.945e-05,0.0,0 STARLINK-5864,1 55940U 23037AC  23150.25221666  .00001945  00000-0  17944-4 0  9997,2 55940  69.9997 334.4659 0003370 271.1276  88.9534 15.69921373 12069,6737.259,91.724,361.394,356.853,0.0
55940.0,STARLINK-5864,PAYLOAD,2023-05-30 21:20:42,15.69929279,0.0003627,69.9991,332.6755,271.6208,88.4572,1.2361e-05,1.274e-05,0.0,0 STARLINK-5864,1 55940U 23037AC  23150.88937774  .00001274  00000-0  12361-4 0  9993,2 55940  69.9991 332.6755 0003627 271.6208  88.4572 15.69929279 11828,6737.236,91.724,361.545,356.658,0.0
55940.0,STARLINK-5864,PAYLOAD,2023-05-31 04:59:28,15.69916719,0.0003113,69.9997,331.7792,271.5488,88.5351,1.4762e-05,1.562e-05,0.0,0 STARLINK-5864,1 55940U 23037AC  23151.20797023  .00001562  00000-0  14762-4 0  9998,2 55940  69.9997 331.7792 0003113 271.5488  88.5351 15.69916719 12219,6737.272,91.725,361.235,357.04,0.0
55940.0,STARLINK-5864,PAYLOAD,2023-05-31 14:09:58,15.69924308,0.0003715,69.9986,330.7036,271.4917,88.5853,9.9792e-06,9.87e-06,0.0,0 STARLINK-5864,1 55940U 23037AC  23151.59026514  .00000987  00000-0  99792-5 0  9997,2 55940  69.9986 330.7036 0003715 271.4917  88.5853 15.69924308 11939,6737.251,91.724,361.618,356.613,0.0
55940.0,STARLINK-5864,PAYLOAD,2023-05-31 18:45:13,15.69935667,0.0003602,69.9993,330.1671,269.532,90.5463,2.5183e-05,2.818e-05,0.0,0 STARLINK-5864,1 55940U 23037AC  23151.78140916  .00002818  00000-0  25183-4 0  9998,2 55940  69.9993 330.1671 0003602 269.5320  90.5463 15.69935667 12309,6737.218,91.724,361.51,356.656,0.0
55940.0,STARLINK-5864,PAYLOAD,2023-05-31 21:48:44,15.69918805,0.0003738,69.9982,329.8064,277.8823,82.1948,-1.2017e-05,-1.657e-05,0.0,0 STARLINK-5864,1 55940U 23037AC  23151.90884990 -.00001657  00000-0 -12017-4 0  9993,2 55940  69.9982 329.8064 0003738 277.8823  82.1948 15.69918805 11981,6737.266,91.724,361.65,356.613,0.0
